{"type": "FeatureCollection", "features": [{"type": "Feature", "properties": {"norad_id": 2807, "name": "OPS 7218 (TRANSIT 16)", "group": "nnss", "lat": -44.056003483397035, "lon": -6.751751277714812, "alt_km": 1084.970619566985, "timestamp": "2025-12-26T08:37:54.848792+00:00", "meta": {"OBJECT_NAME": "OPS 7218 (TRANSIT 16)", "OBJECT_ID": "1967-048A", "EPOCH": "2025-12-26T00:13:29.128224", "MEAN_MOTION": 13.50724931, "ECCENTRICITY": 0.0022138, "INCLINATION": 89.6734, "RA_OF_ASC_NODE": 353.576, "ARG_OF_PERICENTER": 78.7775, "MEAN_ANOMALY": 335.1226, "EPHEMERIS_TYPE": 0, "CLASSIFICATION_TYPE": "U", "NORAD_CAT_ID": 2807, "ELEMENT_SET_NO": 999, "REV_AT_EPOCH": 88455, "BSTAR": 0.00013824, "MEAN_MOTION_DOT": 9.9e-07, "MEAN_MOTION_DDOT": 0}, "tle": {"line1": "1 02807U 67048A   25360.00936491  .00000099  00000+0  13824-3 0  9998", "line2": "2 02807  89.6734 353.5760 0022138  78.7775 335.1226 13.50724931884559"}}, "geometry": {"type": "Point", "coordinates": [-6.751751277714812, -44.056003483397035]}}, {"type": "Feature", "properties": {"norad_id": 2965, "name": "OPS 4947 (TRANSIT 17)", "group": "nnss", "lat": 25.731683076095855, "lon": -156.96629472190108, "alt_km": 1031.7548934991437, "timestamp": "2025-12-26T08:37:54.848826+00:00", "meta": {"OBJECT_NAME": "OPS 4947 (TRANSIT 17)", "OBJECT_ID": "1967-092A", "EPOCH": "2025-12-26T00:51:43.162272", "MEAN_MOTION": 13.53457055, "ECCENTRICITY": 0.0047203, "INCLINATION": 89.2485, "RA_OF_ASC_NODE": 23.4208, "ARG_OF_PERICENTER": 195.1171, "MEAN_ANOMALY": 182.9002, "EPHEMERIS_TYPE": 0, "CLASSIFICATION_TYPE": "U", "NORAD_CAT_ID": 2965, "ELEMENT_SET_NO": 999, "REV_AT_EPOCH": 87277, "BSTAR": 0.00018182, "MEAN_MOTION_DOT": 1.34e-06, "MEAN_MOTION_DDOT": 0}, "tle": {"line1": "1 02965U 67092A   25360.03591623  .00000134  00000+0  18182-3 0  9991", "line2": "2 02965  89.2485  23.4208 0047203 195.1171 182.9002 13.53457055872771"}}, "geometry": {"type": "Point", "coordinates": [-156.96629472190108, 25.731683076095855]}}, {"type": "Feature", "properties": {"norad_id": 3133, "name": "OPS 7034 (TRANSIT 18)", "group": "nnss", "lat": -32.17168560861189, "lon": 93.65991405990303, "alt_km": 1064.4338808370958, "timestamp": "2025-12-26T08:37:54.848839+00:00", "meta": {"OBJECT_NAME": "OPS 7034 (TRANSIT 18)", "OBJECT_ID": "1968-012A", "EPOCH": "2025-12-26T04:51:43.903008", "MEAN_MOTION": 13.51568864, "ECCENTRICITY": 0.0075059, "INCLINATION": 90.0285, "RA_OF_ASC_NODE": 273.6774, "ARG_OF_PERICENTER": 130.4949, "MEAN_ANOMALY": 36.9254, "EPHEMERIS_TYPE": 0, "CLASSIFICATION_TYPE": "U", "NORAD_CAT_ID": 3133, "ELEMENT_SET_NO": 999, "REV_AT_EPOCH": 57100, "BSTAR": 0.00020611, "MEAN_MOTION_DOT": 1.47e-06, "MEAN_MOTION_DDOT": 0}, "tle": {"line1": "1 03133U 68012A   25360.20259147  .00000147  00000+0  20611-3 0  9997", "line2": "2 03133  90.0285 273.6774 0075059 130.4949  36.9254 13.51568864571007"}}, "geometry": {"type": "Point", "coordinates": [93.65991405990303, -32.17168560861189]}}, {"type": "Feature", "properties": {"norad_id": 4507, "name": "NNSS 19 (TRANSIT 19)", "group": "nnss", "lat": 11.444070947470378, "lon": 54.54397437772308, "alt_km": 1055.7370787650125, "timestamp": "2025-12-26T08:37:54.848851+00:00", "meta": {"OBJECT_NAME": "NNSS 19 (TRANSIT 19)", "OBJECT_ID": "1970-067A", "EPOCH": "2025-12-26T02:27:02.780064", "MEAN_MOTION": 13.51317818, "ECCENTRICITY": 0.0170217, "INCLINATION": 90.0047, "RA_OF_ASC_NODE": 234.5429, "ARG_OF_PERICENTER": 254.2612, "MEAN_ANOMALY": 103.9709, "EPHEMERIS_TYPE": 0, "CLASSIFICATION_TYPE": "U", "NORAD_CAT_ID": 4507, "ELEMENT_SET_NO": 999, "REV_AT_EPOCH": 72402, "BSTAR": 0.00012532, "MEAN_MOTION_DOT": 9.7e-07, "MEAN_MOTION_DDOT": 0}, "tle": {"line1": "1 04507U 70067A   25360.10211551  .00000097  00000+0  12532-3 0  9999", "line2": "2 04507  90.0047 234.5429 0170217 254.2612 103.9709 13.51317818724029"}}, "geometry": {"type": "Point", "coordinates": [54.54397437772308, 11.444070947470378]}}, {"type": "Feature", "properties": {"norad_id": 6909, "name": "NNSS 20 (TRANSIT 20)", "group": "nnss", "lat": 29.99311243914605, "lon": 74.76692710932576, "alt_km": 1034.4191150244296, "timestamp": "2025-12-26T08:37:54.848863+00:00", "meta": {"OBJECT_NAME": "NNSS 20 (TRANSIT 20)", "OBJECT_ID": "1973-081A", "EPOCH": "2025-12-26T02:39:49.072032", "MEAN_MOTION": 13.71441274, "ECCENTRICITY": 0.0156065, "INCLINATION": 89.8559, "RA_OF_ASC_NODE": 254.8539, "ARG_OF_PERICENTER": 38.6786, "MEAN_ANOMALY": 322.5431, "EPHEMERIS_TYPE": 0, "CLASSIFICATION_TYPE": "U", "NORAD_CAT_ID": 6909, "ELEMENT_SET_NO": 999, "REV_AT_EPOCH": 80544, "BSTAR": 0.00026552, "MEAN_MOTION_DOT": 2.71e-06, "MEAN_MOTION_DDOT": 0}, "tle": {"line1": "1 06909U 73081A   25360.11098463  .00000271  00000+0  26552-3 0  9993", "line2": "2 06909  89.8559 254.8539 0156065  38.6786 322.5431 13.71441274805442"}}, "geometry": {"type": "Point", "coordinates": [74.76692710932576, 29.99311243914605]}}, {"type": "Feature", "properties": {"norad_id": 10457, "name": "TRANSAT", "group": "nnss", "lat": 58.90608921724737, "lon": 78.69946073835727, "alt_km": 1071.1598026468128, "timestamp": "2025-12-26T08:37:54.848873+00:00", "meta": {"OBJECT_NAME": "TRANSAT", "OBJECT_ID": "1977-106A", "EPOCH": "2025-12-26T03:19:00.535296", "MEAN_MOTION": 13.4894565, "ECCENTRICITY": 0.0026593, "INCLINATION": 89.6474, "RA_OF_ASC_NODE": 78.1223, "ARG_OF_PERICENTER": 151.5933, "MEAN_ANOMALY": 272.8478, "EPHEMERIS_TYPE": 0, "CLASSIFICATION_TYPE": "U", "NORAD_CAT_ID": 10457, "ELEMENT_SET_NO": 999, "REV_AT_EPOCH": 36924, "BSTAR": 0.00011626, "MEAN_MOTION_DOT": 8.3e-07, "MEAN_MOTION_DDOT": 0}, "tle": {"line1": "1 10457U 77106A   25360.13820064  .00000083  00000+0  11626-3 0  9997", "line2": "2 10457  89.6474  78.1223 0026593 151.5933 272.8478 13.48945650369249"}}, "geometry": {"type": "Point", "coordinates": [78.69946073835727, 58.90608921724737]}}, {"type": "Feature", "properties": {"norad_id": 12458, "name": "NOVA 1", "group": "nnss", "lat": 35.64648626887927, "lon": -88.91324931659393, "alt_km": 1166.4633552627529, "timestamp": "2025-12-26T08:37:54.848884+00:00", "meta": {"OBJECT_NAME": "NOVA 1", "OBJECT_ID": "1981-044A", "EPOCH": "2025-12-26T04:23:31.257888", "MEAN_MOTION": 13.23279937, "ECCENTRICITY": 0.0015692, "INCLINATION": 89.8525, "RA_OF_ASC_NODE": 91.1951, "ARG_OF_PERICENTER": 70.9382, "MEAN_ANOMALY": 312.0594, "EPHEMERIS_TYPE": 0, "CLASSIFICATION_TYPE": "U", "NORAD_CAT_ID": 12458, "ELEMENT_SET_NO": 999, "REV_AT_EPOCH": 15364, "BSTAR": 0.00011445, "MEAN_MOTION_DOT": 5.8e-07, "MEAN_MOTION_DDOT": 0}, "tle": {"line1": "1 12458U 81044A   25360.18300067  .00000058  00000+0  11445-3 0  9998", "line2": "2 12458  89.8525  91.1951 0015692  70.9382 312.0594 13.23279937153646"}}, "geometry": {"type": "Point", "coordinates": [-88.91324931659393, 35.64648626887927]}}, {"type": "Feature", "properties": {"norad_id": 15362, "name": "NOVA 3", "group": "nnss", "lat": 5.542434363700257, "lon": 80.6828979916799, "alt_km": 1168.6225975079333, "timestamp": "2025-12-26T08:37:54.848894+00:00", "meta": {"OBJECT_NAME": "NOVA 3", "OBJECT_ID": "1984-110A", "EPOCH": "2025-12-26T03:28:34.525056", "MEAN_MOTION": 13.23046301, "ECCENTRICITY": 0.0029845, "INCLINATION": 90.1217, "RA_OF_ASC_NODE": 80.6922, "ARG_OF_PERICENTER": 293.237, "MEAN_ANOMALY": 129.5093, "EPHEMERIS_TYPE": 0, "CLASSIFICATION_TYPE": "U", "NORAD_CAT_ID": 15362, "ELEMENT_SET_NO": 999, "REV_AT_EPOCH": 98876, "BSTAR": 0.00013654, "MEAN_MOTION_DOT": 6.6e-07, "MEAN_MOTION_DDOT": 0}, "tle": {"line1": "1 15362U 84110A   25360.14484404  .00000066  00000+0  13654-3 0  9999", "line2": "2 15362  90.1217  80.6922 0029845 293.2370 129.5093 13.23046301988760"}}, "geometry": {"type": "Point", "coordinates": [80.6828979916799, 5.542434363700257]}}, {"type": "Feature", "properties": {"norad_id": 15935, "name": "OSCAR 30", "group": "nnss", "lat": 2.875276092704919, "lon": 100.06143412190801, "alt_km": 1032.588487247128, "timestamp": "2025-12-26T08:37:54.848906+00:00", "meta": {"OBJECT_NAME": "OSCAR 30", "OBJECT_ID": "1985-066A", "EPOCH": "2025-12-25T20:37:30.509760", "MEAN_MOTION": 13.36080597, "ECCENTRICITY": 0.01688008, "INCLINATION": 90.1653, "RA_OF_ASC_NODE": 100.0616, "ARG_OF_PERICENTER": 47.223, "MEAN_ANOMALY": 72.1814, "EPHEMERIS_TYPE": 0, "CLASSIFICATION_TYPE": "U", "NORAD_CAT_ID": 15935, "ELEMENT_SET_NO": 999, "REV_AT_EPOCH": 96628, "BSTAR": 0.00020088881, "MEAN_MOTION_DOT": 1.21e-06, "MEAN_MOTION_DDOT": 0}, "tle": {"line1": "1 15935U 85066A   25359.85938090  .00000121  00000+0  20089-3 0  9999", "line2": "2 15935  90.1653 100.0616 0168800  47.2230  72.1814 13.36080597966280"}}, "geometry": {"type": "Point", "coordinates": [100.06143412190801, 2.875276092704919]}}, {"type": "Feature", "properties": {"norad_id": 15936, "name": "OSCAR 24", "group": "nnss", "lat": 73.30820737131529, "lon": 91.94867067126788, "alt_km": 998.2113359006544, "timestamp": "2025-12-26T08:37:54.848917+00:00", "meta": {"OBJECT_NAME": "OSCAR 24", "OBJECT_ID": "1985-066B", "EPOCH": "2025-12-25T18:26:58.709184", "MEAN_MOTION": 13.35937682, "ECCENTRICITY": 0.01699978, "INCLINATION": 90.1791, "RA_OF_ASC_NODE": 92.5359, "ARG_OF_PERICENTER": 53.9382, "MEAN_ANOMALY": 58.384, "EPHEMERIS_TYPE": 0, "CLASSIFICATION_TYPE": "U", "NORAD_CAT_ID": 15936, "ELEMENT_SET_NO": 999, "REV_AT_EPOCH": 96817, "BSTAR": 0.00016315366, "MEAN_MOTION_DOT": 1e-06, "MEAN_MOTION_DDOT": 0}, "tle": {"line1": "1 15936U 85066B   25359.76873506  .00000100  00000+0  16315-3 0  9994", "line2": "2 15936  90.1791  92.5359 0169997  53.9382  58.3840 13.35937682968173"}}, "geometry": {"type": "Point", "coordinates": [91.94867067126788, 73.30820737131529]}}]}